NORAD_CAT_ID,OBJECT_NAME,OBJECT_TYPE,EPOCH,MEAN_MOTION,ECCENTRICITY,INCLINATION,RA_OF_ASC_NODE,ARG_OF_PERICENTER,MEAN_ANOMALY,BSTAR,MEAN_MOTION_DOT,MEAN_MOTION_DDOT,TLE_LINE0,TLE_LINE1,TLE_LINE2,SEMIMAJOR_AXIS,PERIOD,APOGEE,PERIGEE,DECAYED
56459.0,STARLINK-6048,PAYLOAD,2023-11-10 19:14:06,14.9833505,0.0002966,69.9991,127.2233,269.2357,90.8462,7.3343e-05,7.82e-06,0.0,0 STARLINK-6048,1 56459U 23064M   23314.80146188  .00000782  00000-0  73343-4 0  9994,2 56459  69.9991 127.2233 0002966 269.2357  90.8462 14.98335050 28301,6950.177,96.107,574.104,569.981,0.0
56459.0,STARLINK-6048,PAYLOAD,2023-11-10 20:50:14,14.98335259,0.0002966,69.9991,127.055,269.4342,90.6477,7.341e-05,7.83e-06,0.0,0 STARLINK-6048,1 56459U 23064M   23314.86822141  .00000783  00000-0  73410-4 0  9996,2 56459  69.9991 127.0550 0002966 269.4342  90.6477 14.98335259 27952,6950.177,96.107,574.103,569.98,0.0
56459.0,STARLINK-6048,PAYLOAD,2023-11-11 14:27:43,14.98331655,0.0002878,69.9993,125.2035,267.8454,92.2375,-3.5144e-05,-5.12e-06,0.0,0 STARLINK-6048,1 56459U 23064M   23315.60258478 -.00000512  00000-0 -35144-4 0  9999,2 56459  69.9993 125.2035 0002878 267.8454  92.2375 14.98331655 28064,6950.188,96.107,574.053,570.053,0.0
56459.0,STARLINK-6048,PAYLOAD,2023-11-11 19:16:07,14.98330614,0.0002883,69.9994,124.6983,267.1438,92.9391,-4.8379e-05,-6.7e-06,0.0,0 STARLINK-6048,1 56459U 23064M   23315.80286544 -.00000670  00000-0 -48379-4 0  9995,2 56459  69.9994 124.6983 0002883 267.1438  92.9391 14.98330614 28453,6950.191,96.107,574.06,570.052,0.0
56459.0,STARLINK-6048,PAYLOAD,2023-11-11 20:52:15,14.98330578,0.0002881,69.9994,124.53,267.179,92.9039,-4.8427e-05,-6.71e-06,0.0,0 STARLINK-6048,1 56459U 23064M   23315.86962529 -.00000671  00000-0 -48427-4 0  9990,2 56459  69.9994 124.5300 0002881 267.1790  92.9039 14.98330578 28104,6950.191,96.107,574.058,570.054,0.0
56459.0,STARLINK-6048,PAYLOAD,2023-11-12 12:53:36,14.98333128,0.0002975,69.9992,122.8466,268.7933,91.2885,-3.931e-05,-5.62e-06,0.0,0 STARLINK-6048,1 56459U 23064M   23316.53722233 -.00000562  00000-0 -39310-4 0  9991,2 56459  69.9992 122.8466 0002975 268.7933  91.2885 14.98333128 28202,6950.183,96.107,574.116,569.981,0.0
56459.0,STARLINK-6048,PAYLOAD,2023-11-12 19:18:08,14.98333075,0.0002987,69.9992,122.1733,268.8567,91.225,-3.57e-05,-5.19e-06,0.0,0 STARLINK-6048,1 56459U 23064M   23316.80426169 -.00000519  00000-0 -35700-4 0  9991,2 56459  69.9992 122.1733 0002987 268.8567  91.2250 14.98333075 28600,6950.183,96.107,574.124,569.972,0.0
56459.0,STARLINK-6048,PAYLOAD,2023-11-12 20:54:16,14.98332907,0.0002993,69.9992,122.0051,269.1755,90.9061,-3.6785e-05,-5.32e-06,0.0,0 STARLINK-6048,1 56459U 23064M   23316.87102169 -.00000532  00000-0 -36785-4 0  9998,2 56459  69.9992 122.0051 0002993 269.1755  90.9061 14.98332907 28252,6950.184,96.107,574.129,569.969,0.0
56459.0,STARLINK-6048,PAYLOAD,2023-11-13 11:19:28,14.98331347,0.0003085,69.9991,120.4902,268.7713,91.3092,3.6865e-05,3.47e-06,0.0,0 STARLINK-6048,1 56459U 23064M   23317.47185947  .00000347  00000-0  36865-4 0  9991,2 56459  69.9991 120.4902 0003085 268.7713  91.3092 14.98331347 28346,6950.189,96.107,574.198,569.91,0.0
56459.0,STARLINK-6048,PAYLOAD,2023-11-13 17:44:00,14.98332405,0.0003084,69.9991,119.8174,269.6082,90.4724,4.7605e-05,4.75e-06,0.0,0 STARLINK-6048,1 56459U 23064M   23317.73889825  .00000475  00000-0  47605-4 0  9992,2 56459  69.9991 119.8174 0003084 269.6082  90.4724 14.98332405 28389,6950.185,96.107,574.194,569.907,0.0
56459.0,STARLINK-6048,PAYLOAD,2023-11-14 11:21:29,14.98328856,0.0003049,69.9993,117.9658,269.9353,90.1457,-1.1145e-05,-2.26e-06,0.0,0 STARLINK-6048,1 56459U 23064M   23318.47326170 -.00000226  00000-0 -11145-4 0  9999,2 56459  69.9993 117.9658 0003049 269.9353  90.1457 14.98328856 28859,6950.196,96.107,574.181,569.942,0.0
56459.0,STARLINK-6048,PAYLOAD,2023-11-14 12:57:37,14.98328847,0.0003051,69.9993,117.7975,269.9207,90.1603,-1.1132e-05,-2.26e-06,0.0,0 STARLINK-6048,1 56459U 23064M   23318.54002170 -.00000226  00000-0 -11132-4 0  9994,2 56459  69.9993 117.7975 0003051 269.9207  90.1603 14.98328847 28505,6950.196,96.107,574.182,569.941,0.0
56459.0,STARLINK-6048,PAYLOAD,2023-11-14 17:46:02,14.98328878,0.0003089,69.9993,117.2925,270.1256,89.9549,-2.3178e-05,-3.7e-06,0.0,0 STARLINK-6048,1 56459U 23064M   23318.74030207 -.00000370  00000-0 -23178-4 0  9991,2 56459  69.9993 117.2925 0003089 270.1256  89.9549 14.98328878 28536,6950.196,96.107,574.208,569.914,0.0
56459.0,STARLINK-6048,PAYLOAD,2023-11-15 11:23:30,14.98330516,0.0003017,69.9995,115.4409,270.2596,89.8218,-2.9351e-05,-4.43e-06,0.0,0 STARLINK-6048,1 56459U 23064M   23319.47466133 -.00000443  00000-0 -29351-4 0  9993,2 56459  69.9995 115.4409 0003017 270.2596  89.8218 14.98330516 29001,6950.191,96.107,574.153,569.959,0.0
56459.0,STARLINK-6048,PAYLOAD,2023-11-15 12:59:38,14.9833061,0.0003006,69.9995,115.2726,270.2552,89.8262,-2.9256e-05,-4.42e-06,0.0,0 STARLINK-6048,1 56459U 23064M   23319.54142123 -.00000442  00000-0 -29256-4 0  9994,2 56459  69.9995 115.2726 0003006 270.2552  89.8262 14.98330610 28655,6950.191,96.107,574.145,569.967,0.0
56459.0,STARLINK-6048,PAYLOAD,2023-11-16 16:13:55,14.98328855,0.0002893,70.0,112.4115,269.1601,90.9227,2.6642e-05,2.25e-06,0.0,0 STARLINK-6048,1 56459U 23064M   23320.67634061  .00000225  00000-0  26642-4 0  9990,2 56459  70.0000 112.4115 0002893 269.1601  90.9227 14.98328855 29182,6950.196,96.107,574.072,570.051,0.0
56459.0,STARLINK-6048,PAYLOAD,2023-11-16 21:02:20,14.98328558,0.0002938,70.0,111.9065,269.2645,90.8178,2.2645e-05,1.77e-06,0.0,0 STARLINK-6048,1 56459U 23064M   23320.87662101  .00000177  00000-0  22645-4 0  9993,2 56459  70.0000 111.9065 0002938 269.2645  90.8178 14.98328558 28856,6950.197,96.107,574.104,570.02,0.0
56459.0,STARLINK-6048,PAYLOAD,2023-11-17 13:03:40,14.98329868,0.0003023,69.9995,110.2231,270.7073,89.374,9.5868e-06,2.1e-07,0.0,0 STARLINK-6048,1 56459U 23064M   23321.54422056  .00000021  00000-0  95868-5 0  9997,2 56459  69.9995 110.2231 0003023 270.7073  89.3740 14.98329868 28955,6950.193,96.107,574.159,569.957,0.0
56459.0,STARLINK-6048,PAYLOAD,2023-11-17 16:15:56,14.98330586,0.0003016,69.9995,109.8864,270.6979,89.3835,1.67e-05,1.06e-06,0.0,0 STARLINK-6048,1 56459U 23064M   23321.67773985  .00000106  00000-0  16700-4 0  9992,2 56459  69.9995 109.8864 0003016 270.6979  89.3835 14.98330586 29334,6950.191,96.107,574.152,569.96,0.0
56459.0,STARLINK-6048,PAYLOAD,2023-11-18 13:05:41,14.98328908,0.0003051,69.9994,107.6982,270.345,89.7359,-1.1451e-05,-2.3e-06,0.0,0 STARLINK-6048,1 56459U 23064M   23322.54562178 -.00000230  00000-0 -11451-4 0  9997,2 56459  69.9994 107.6982 0003051 270.3450  89.7359 14.98328908 29105,6950.196,96.107,574.182,569.941,0.0
56459.0,STARLINK-6048,PAYLOAD,2023-11-18 16:17:57,14.98330302,0.0003064,69.9993,107.3616,269.9965,90.0843,3.6835e-07,-8.9e-07,0.0,0 STARLINK-6048,1 56459U 23064M   23322.67914056 -.00000089  00000-0  36835-6 0  9993,2 56459  69.9993 107.3616 0003064 269.9965  90.0843 14.98330302 29489,6950.192,96.107,574.186,569.927,0.0
56459.0,STARLINK-6048,PAYLOAD,2023-11-19 13:07:42,14.98332017,0.0003178,69.9992,105.173,270.1545,89.925,5.0398e-05,5.08e-06,0.0,0 STARLINK-6048,1 56459U 23064M   23323.54701705  .00000508  00000-0  50398-4 0  9998,2 56459  69.9992 105.1730 0003178 270.1545  89.9250 14.98332017 29254,6950.187,96.107,574.26,569.843,0.0
56459.0,STARLINK-6048,PAYLOAD,2023-11-19 19:32:14,14.98336267,0.0003174,69.9994,104.4999,270.4377,89.6419,6.4887e-05,6.81e-06,0.0,0 STARLINK-6048,1 56459U 23064M   23323.81405330  .00000681  00000-0  64887-4 0  9993,2 56459  69.9994 104.4999 0003174 270.4377  89.6419 14.98336267 29656,6950.174,96.107,574.244,569.833,0.0
56459.0,STARLINK-6048,PAYLOAD,2023-11-20 09:57:27,14.98328959,0.0003107,69.9997,102.9849,270.5595,89.5208,-1.5901e-05,-2.83e-06,0.0,0 STARLINK-6048,1 56459U 23064M   23324.41489943 -.00000283  00000-0 -15901-4 0  9995,2 56459  69.9997 102.9849 0003107 270.5595  89.5208 14.98328959 29749,6950.196,96.107,574.221,569.902,0.0
56459.0,STARLINK-6048,PAYLOAD,2023-11-20 14:45:51,14.98331361,0.0002893,70.0005,102.4813,264.0713,96.0117,1.3446e-05,6.7e-07,0.0,0 STARLINK-6048,1 56459U 23064M   23324.61517692  .00000067  00000-0  13446-4 0  9990,2 56459  70.0005 102.4813 0002893 264.0713  96.0117 14.98331361 29416,6950.189,96.107,574.064,570.043,0.0
56459.0,STARLINK-6048,PAYLOAD,2023-11-20 21:10:23,14.98333758,0.0003225,69.9996,101.8068,269.3965,90.6824,3.8732e-05,3.69e-06,0.0,0 STARLINK-6048,1 56459U 23064M   23324.88221419  .00000369  00000-0  38732-4 0  9998,2 56459  69.9996 101.8068 0003225 269.3965  90.6824 14.98333758 29455,6950.181,96.107,574.288,569.805,0.0
56459.0,STARLINK-6048,PAYLOAD,2023-11-21 09:59:27,14.98333102,0.0003155,70.0,100.4601,269.6057,90.4741,-2.6553e-05,-4.1e-06,0.0,0 STARLINK-6048,1 56459U 23064M   23325.41629565 -.00000410  00000-0 -26553-4 0  9999,2 56459  70.0000 100.4601 0003155 269.6057  90.4741 14.98333102 29896,6950.183,96.107,574.241,569.856,0.0
56459.0,STARLINK-6048,PAYLOAD,2023-11-21 13:11:44,14.98333651,0.0003079,69.9999,100.1225,269.1165,90.9641,-3.1106e-05,-4.64e-06,0.0,0 STARLINK-6048,1 56459U 23064M   23325.54981506 -.00000464  00000-0 -31106-4 0  9998,2 56459  69.9999 100.1225 0003079 269.1165  90.9641 14.98333651 29555,6950.182,96.107,574.187,569.907,0.0
56459.0,STARLINK-6048,PAYLOAD,2023-11-21 19:36:15,14.98337011,0.000292,70.0003,99.4506,266.4219,93.6606,3.8118e-05,3.62e-06,0.0,0 STARLINK-6048,1 56459U 23064M   23325.81685036  .00000362  00000-0  38118-4 0  9992,2 56459  70.0003  99.4506 0002920 266.4219  93.6606 14.98337011 29599,6950.171,96.107,574.066,570.007,0.0
56459.0,STARLINK-6048,PAYLOAD,2023-11-21 21:12:23,14.98341223,0.0002932,70.0005,99.2825,275.7647,84.3178,7.0854e-05,7.53e-06,0.0,0 STARLINK-6048,1 56459U 23064M   23325.88360714  .00000753  00000-0  70854-4 0  9999,2 56459  70.0005  99.2825 0002932 275.7647  84.3178 14.98341223 29966,6950.158,96.106,574.061,569.985,0.0
